IRIDIUM 171             
1 43929U 19002H   25299.85540250  .00000277  00000+0  91946-4 0  9993
2 43929  86.3935  91.4023 0001763  93.0227 267.1170 14.34218968355511
IRIDIUM 170             
1 43930U 19002J   25299.83202258  .00001205  00000+0  18722-3 0  9998
2 43930  86.6046  91.1359 0002225  89.6482 270.4990 14.72246959364921
IRIDIUM 167             
1 43931U 19002K   25299.50021765  .00000305  00000+0  10169-3 0  9992
2 43931  86.3926  91.2906 0001690  85.5831 274.5558 14.34218663355466
IRIDIUM 181             
1 56726U 23068S   25299.67450711  .00000463  00000+0  13142-3 0  9999
2 56726  86.4529 154.3814 0001801 100.0792 260.0612 14.43317034128757
IRIDIUM 177             
1 56727U 23068T   25299.82663823  .00002277  00000+0  29623-3 0  9993
2 56727  86.1942  79.6089 0002246  86.5156 273.6322 14.80231205131841
IRIDIUM 174             
1 56728U 23068U   25299.81967192  .00001434  00000+0  22344-3 0  9996
2 56728  86.6057  91.2653 0002710  85.5973 274.5554 14.72265716131687
IRIDIUM 178             
1 56729U 23068V   25299.74812090  .00000356  00000+0  43437-4 0  9994
2 56729  86.6512 122.9382 0001963  84.5274 275.6172 14.80237895131838
IRIDIUM 179             
1 56730U 23068W   25299.53996091  .00000634  00000+0  79991-4 0  9990
2 56730  86.6765 131.3030 0001574  80.1171 280.0229 14.80237663131803
